{
  "type": "FeatureCollection",
  "features": [
    {
      "type": "Feature",
      "properties": {
        "norad_id": 31433,
        "name": "FENGYUN 1C DEB",
        "group": "fengyun-1c-debris",
        "lat": -14.861398876244476,
        "lon": 61.637262666452315,
        "alt_km": 872.0244330730266,
        "timestamp": "2025-12-06T03:35:02.153695+00:00",
        "meta_object_name": "FENGYUN 1C DEB",
        "meta_object_id": "1999-025BTV",
        "meta_epoch": "2025-12-05T07:03:15.220224",
        "meta_mean_motion": 14.25293553,
        "meta_eccentricity": 0.01002089,
        "meta_inclination": 98.4108,
        "meta_ra_of_asc_node": 243.067,
        "meta_arg_of_pericenter": 50.7639,
        "meta_mean_anomaly": 76.8611,
        "meta_ephemeris_type": 0,
        "meta_classification_type": "U",
        "meta_norad_cat_id": 31433,
        "meta_element_set_no": 999,
        "meta_rev_at_epoch": 95446,
        "meta_bstar": 0.004539339,
        "meta_mean_motion_dot": 0.00011236,
        "meta_mean_motion_ddot": 0,
        "tle_line1": "1 31433U 99025BTV 25339.29392616  .00011236  00000+0  45393-2 0  9997",
        "tle_line2": "2 31433  98.4108 243.0670 0100208  50.7639  76.8611 14.25293553954465"
      },
      "geometry": {
        "type": "Point",
        "coordinates": [
          61.637262666452315,
          -14.861398876244476
        ]
      }
    },
    {
      "type": "Feature",
      "properties": {
        "norad_id": 31435,
        "name": "FENGYUN 1C DEB",
        "group": "fengyun-1c-debris",
        "lat": -32.27720895611441,
        "lon": 157.2285491845219,
        "alt_km": 783.6892824237493,
        "timestamp": "2025-12-06T03:35:02.153706+00:00",
        "meta_object_name": "FENGYUN 1C DEB",
        "meta_object_id": "1999-025BTX",
        "meta_epoch": "2025-12-03T17:54:29.292768",
        "meta_mean_motion": 14.53396512,
        "meta_eccentricity": 0.01486288,
        "meta_inclination": 99.0374,
        "meta_ra_of_asc_node": 148.8682,
        "meta_arg_of_pericenter": 207.1752,
        "meta_mean_anomaly": 152.1608,
        "meta_ephemeris_type": 0,
        "meta_classification_type": "U",
        "meta_norad_cat_id": 31435,
        "meta_element_set_no": 999,
        "meta_rev_at_epoch": 98242,
        "meta_bstar": 0.00043649672,
        "meta_mean_motion_dot": 2.041e-05,
        "meta_mean_motion_ddot": 0,
        "tle_line1": "1 31435U 99025BTX 25337.74617237  .00002041  00000+0  43650-3 0  9995",
        "tle_line2": "2 31435  99.0374 148.8682 0148628 207.1752 152.1608 14.53396512982427"
      },
      "geometry": {
        "type": "Point",
        "coordinates": [
          157.2285491845219,
          -32.27720895611441
        ]
      }
    },
    {
      "type": "Feature",
      "properties": {
        "norad_id": 31436,
        "name": "FENGYUN 1C DEB",
        "group": "fengyun-1c-debris",
        "lat": 57.654484953890574,
        "lon": 177.95559938341805,
        "alt_km": 612.4085665053663,
        "timestamp": "2025-12-06T03:35:02.153717+00:00",
        "meta_object_name": "FENGYUN 1C DEB",
        "meta_object_id": "1999-025BTY",
        "meta_epoch": "2025-12-04T12:58:15.356064",
        "meta_mean_motion": 14.9239624,
        "meta_eccentricity": 0.0045621,
        "meta_inclination": 98.8798,
        "meta_ra_of_asc_node": 190.4353,
        "meta_arg_of_pericenter": 269.1396,
        "meta_mean_anomaly": 149.6903,
        "meta_ephemeris_type": 0,
        "meta_classification_type": "U",
        "meta_norad_cat_id": 31436,
        "meta_element_set_no": 999,
        "meta_rev_at_epoch": 96754,
        "meta_bstar": 0.010966,
        "meta_mean_motion_dot": 0.00116284,
        "meta_mean_motion_ddot": 0,
        "tle_line1": "1 31436U 99025BTY 25338.54045551  .00116284  00000+0  10966-1 0  9996",
        "tle_line2": "2 31436  98.8798 190.4353 0045621 269.1396 149.6903 14.92396240967540"
      },
      "geometry": {
        "type": "Point",
        "coordinates": [
          177.95559938341805,
          57.654484953890574
        ]
      }
    },
    {
      "type": "Feature",
      "properties": {
        "norad_id": 31437,
        "name": "FENGYUN 1C DEB",
        "group": "fengyun-1c-debris",
        "lat": 56.00487421545536,
        "lon": 47.57748833198369,
        "alt_km": 754.5861276590913,
        "timestamp": "2025-12-06T03:35:02.153727+00:00",
        "meta_object_name": "FENGYUN 1C DEB",
        "meta_object_id": "1999-025BTZ",
        "meta_epoch": "2025-12-03T03:43:35.676192",
        "meta_mean_motion": 14.42268403,
        "meta_eccentricity": 0.00147172,
        "meta_inclination": 98.8658,
        "meta_ra_of_asc_node": 57.8503,
        "meta_arg_of_pericenter": 275.1536,
        "meta_mean_anomaly": 84.7972,
        "meta_ephemeris_type": 0,
        "meta_classification_type": "U",
        "meta_norad_cat_id": 31437,
        "meta_element_set_no": 999,
        "meta_rev_at_epoch": 96372,
        "meta_bstar": 0.0031577834,
        "meta_mean_motion_dot": 0.00010397,
        "meta_mean_motion_ddot": 0,
        "tle_line1": "1 31437U 99025BTZ 25337.15527403  .00010397  00000+0  31578-2 0  9995",
        "tle_line2": "2 31437  98.8658  57.8503 0014717 275.1536  84.7972 14.42268403963729"
      },
      "geometry": {
        "type": "Point",
        "coordinates": [
          47.57748833198369,
          56.00487421545536
        ]
      }
    },
    {
      "type": "Feature",
      "properties": {
        "norad_id": 31439,
        "name": "FENGYUN 1C DEB",
        "group": "fengyun-1c-debris",
        "lat": -54.74715924868257,
        "lon": 153.5515601012343,
        "alt_km": 858.9137331672282,
        "timestamp": "2025-12-06T03:35:02.153738+00:00",
        "meta_object_name": "FENGYUN 1C DEB",
        "meta_object_id": "1999-025BUB",
        "meta_epoch": "2025-12-03T18:31:58.136160",
        "meta_mean_motion": 13.95552286,
        "meta_eccentricity": 0.01375894,
        "meta_inclination": 98.9169,
        "meta_ra_of_asc_node": 344.0849,
        "meta_arg_of_pericenter": 186.3936,
        "meta_mean_anomaly": 351.8228,
        "meta_ephemeris_type": 0,
        "meta_classification_type": "U",
        "meta_norad_cat_id": 31439,
        "meta_element_set_no": 999,
        "meta_rev_at_epoch": 63107,
        "meta_bstar": 0.0011086732,
        "meta_mean_motion_dot": 1.589e-05,
        "meta_mean_motion_ddot": 0,
        "tle_line1": "1 31439U 99025BUB 25337.77220065  .00001589  00000+0  11087-2 0  9995",
        "tle_line2": "2 31439  98.9169 344.0849 0137589 186.3936 351.8228 13.95552286631077"
      },
      "geometry": {
        "type": "Point",
        "coordinates": [
          153.5515601012343,
          -54.74715924868257
        ]
      }
    },
    {
      "type": "Feature",
      "properties": {
        "norad_id": 31440,
        "name": "FENGYUN 1C DEB",
        "group": "fengyun-1c-debris",
        "lat": -75.52192595620353,
        "lon": 104.64560830877298,
        "alt_km": 772.9218392864332,
        "timestamp": "2025-12-06T03:35:02.153748+00:00",
        "meta_object_name": "FENGYUN 1C DEB",
        "meta_object_id": "1999-025BUC",
        "meta_epoch": "2025-12-05T04:32:40.273728",
        "meta_mean_motion": 14.36571049,
        "meta_eccentricity": 0.00367226,
        "meta_inclination": 98.7465,
        "meta_ra_of_asc_node": 67.0707,
        "meta_arg_of_pericenter": 5.5428,
        "meta_mean_anomaly": 354.6157,
        "meta_ephemeris_type": 0,
        "meta_classification_type": "U",
        "meta_norad_cat_id": 31440,
        "meta_element_set_no": 999,
        "meta_rev_at_epoch": 96217,
        "meta_bstar": 0.0037851683,
        "meta_mean_motion_dot": 0.00011182,
        "meta_mean_motion_ddot": 0,
        "tle_line1": "1 31440U 99025BUC 25339.18935502  .00011182  00000+0  37852-2 0  9991",
        "tle_line2": "2 31440  98.7465  67.0707 0036722   5.5428 354.6157 14.36571049962170"
      },
      "geometry": {
        "type": "Point",
        "coordinates": [
          104.64560830877298,
          -75.52192595620353
        ]
      }
    },
    {
      "type": "Feature",
      "properties": {
        "norad_id": 31441,
        "name": "FENGYUN 1C DEB",
        "group": "fengyun-1c-debris",
        "lat": 80.02019679416578,
        "lon": 90.82388585955539,
        "alt_km": 649.8141513635628,
        "timestamp": "2025-12-06T03:35:02.153759+00:00",
        "meta_object_name": "FENGYUN 1C DEB",
        "meta_object_id": "1999-025BUD",
        "meta_epoch": "2025-12-03T01:51:36.412992",
        "meta_mean_motion": 14.73966305,
        "meta_eccentricity": 0.01063296,
        "meta_inclination": 99.3135,
        "meta_ra_of_asc_node": 198.4503,
        "meta_arg_of_pericenter": 4.9284,
        "meta_mean_anomaly": 355.2941,
        "meta_ephemeris_type": 0,
        "meta_classification_type": "U",
        "meta_norad_cat_id": 31441,
        "meta_element_set_no": 999,
        "meta_rev_at_epoch": 63948,
        "meta_bstar": 0.0068089716,
        "meta_mean_motion_dot": 0.00049217,
        "meta_mean_motion_ddot": 0,
        "tle_line1": "1 31441U 99025BUD 25337.07750478  .00049217  00000+0  68090-2 0  9993",
        "tle_line2": "2 31441  99.3135 198.4503 0106329   4.9284 355.2941 14.73966305639486"
      },
      "geometry": {
        "type": "Point",
        "coordinates": [
          90.82388585955539,
          80.02019679416578
        ]
      }
    }
  ]
}